ORBCOMM FM20 [+]        
1 25416U 98046D   24069.77181528  .00001351  00000+0  51950-3 0  9997
2 25416  44.9932 216.6920 0000882 180.2477 179.8370 14.34958140337506
ORBCOMM FM16 [-]        
1 25417U 98046E   24070.60546682  .00001783  00000+0  65810-3 0  9997
2 25417  44.9933 208.9637 0004216 144.9929 215.1196 14.35847455337553
ORBCOMM FM15 [-]        
1 25418U 98046F   24070.48109417  .00001506  00000+0  56653-3 0  9993
2 25418  44.9954 213.4699 0003885 146.4968 213.6125 14.35585689337549
ORBCOMM FM14 [-]        
1 25419U 98046G   24070.53563076  .00001977  00000+0  72610-3 0  9998
2 25419  44.9946 212.4044 0002574 144.8134 335.4845 14.35731624337505
ORBCOMM FM13 [+]        
1 25420U 98046H   24070.52877981  .00001542  00000+0  58464-3 0  9991
2 25420  44.9964 216.9801 0004587 123.3681 236.7605 14.35069031336571
ORBCOMM FM21 [-]        
1 25475U 98053A   24070.33813710  .00001122  00000+0  43935-3 0  9999
2 25475  45.0091 302.1228 0001045  47.7168 312.3768 14.35035552330565
ORBCOMM FM22 [-]        
1 25476U 98053B   24070.33708126  .00001385  00000+0  52580-3 0  9991
2 25476  45.0084 299.6509 0002670  52.5187 307.5903 14.35509486330558
ORBCOMM FM23 [-]        
1 25477U 98053C   24070.36791549  .00001305  00000+0  50248-3 0  9997
2 25477  45.0093 304.4256 0002049  46.5880 313.5138 14.35063416330719
